OBJECT_NAME,OBJECT_ID,EPOCH,MEAN_MOTION,ECCENTRICITY,INCLINATION,RA_OF_ASC_NODE,ARG_OF_PERICENTER,MEAN_ANOMALY,EPHEMERIS_TYPE,CLASSIFICATION_TYPE,NORAD_CAT_ID,ELEMENT_SET_NO,REV_AT_EPOCH,BSTAR,MEAN_MOTION_DOT,MEAN_MOTION_DDOT
TEVEL2-3,2025-052J,2026-07-17T04:06:58.184064,15.34878538,.00038276,97.3842,94.1664,58.5238,301.6379,0,U,63218,999,7469,.29333104E-3,.9845E-4,0
TEVEL2-2,2025-052K,2026-07-17T04:16:31.418688,15.34826667,.0004154,97.3834,94.1498,56.3906,303.7733,0,U,63219,999,7469,.2964562E-3,.9935E-4,0
TEVEL2-9,2025-052AD,2026-07-16T16:08:49.602048,15.32762164,.00075566,97.3899,92.9536,53.0535,307.1398,0,U,63237,999,7454,.32238013E-3,.10133E-3,0
TEVEL2-7,2025-052AE,2026-07-17T04:14:23.728992,15.32453102,.00076022,97.3898,93.3596,51.1945,308.9975,0,U,63238,999,7461,.28759837E-3,.8943E-4,0
TEVEL2-8,2025-052AF,2026-07-16T15:54:27.850176,15.32429153,.00077106,97.3904,92.8233,54.0583,306.1374,0,U,63239,999,7453,.30904259E-3,.9609E-4,0
FORESAIL-1 PRIME,2025-276DS,2026-07-17T04:05:35.310912,15.18947700,.00027374,97.4189,270.8955,40.2765,319.8672,0,U,66778,999,3495,.11111914E-3,.2254E-4,0
